CCSDS_OMM_VERS = 2.0
CREATION_DATE  = 
ORIGINATOR     = 

OBJECT_NAME    = STARLINK-36879
OBJECT_ID      = 2026-038X
CENTER_NAME    = EARTH
REF_FRAME      = TEME
TIME_SYSTEM    = UTC
MEAN_ELEMENT_THEORY = SGP/SGP4

EPOCH          = 2026-03-21T04:00:00.999936
MEAN_MOTION    = 15.49238863
ECCENTRICITY   = .00011237
INCLINATION    = 97.2858
RA_OF_ASC_NODE = 90.9207
ARG_OF_PERICENTER = 96.4897
MEAN_ANOMALY   = 331.9893

EPHEMERIS_TYPE = 0
CLASSIFICATION_TYPE = U
NORAD_CAT_ID   = 67982
ELEMENT_SET_NO = 999
REV_AT_EPOCH   = 504
BSTAR          = -.2741589E-2
MEAN_MOTION_DOT = -.14671E-2
MEAN_MOTION_DDOT = 0

CCSDS_OMM_VERS = 2.0
CREATION_DATE  = 
ORIGINATOR     = 

OBJECT_NAME    = STARLINK-36867
OBJECT_ID      = 2026-038Y
CENTER_NAME    = EARTH
REF_FRAME      = TEME
TIME_SYSTEM    = UTC
MEAN_ELEMENT_THEORY = SGP/SGP4

EPOCH          = 2026-03-21T04:00:00.999936
MEAN_MOTION    = 15.49225819
ECCENTRICITY   = .00014198
INCLINATION    = 97.2853
RA_OF_ASC_NODE = 90.9529
ARG_OF_PERICENTER = 88.8503
MEAN_ANOMALY   = 53.6298

EPHEMERIS_TYPE = 0
CLASSIFICATION_TYPE = U
NORAD_CAT_ID   = 67983
ELEMENT_SET_NO = 999
REV_AT_EPOCH   = 504
BSTAR          = -.20487142E-2
MEAN_MOTION_DOT = -.110115E-2
MEAN_MOTION_DDOT = 0

CCSDS_OMM_VERS = 2.0
CREATION_DATE  = 
ORIGINATOR     = 

OBJECT_NAME    = STARLINK-36266
OBJECT_ID      = 2026-038Z
CENTER_NAME    = EARTH
REF_FRAME      = TEME
TIME_SYSTEM    = UTC
MEAN_ELEMENT_THEORY = SGP/SGP4

EPOCH          = 2026-03-21T04:00:00.999936
MEAN_MOTION    = 15.61454742
ECCENTRICITY   = .00015887
INCLINATION    = 97.2854
RA_OF_ASC_NODE = 91.0735
ARG_OF_PERICENTER = 75.6499
MEAN_ANOMALY   = 358.2649

EPHEMERIS_TYPE = 0
CLASSIFICATION_TYPE = U
NORAD_CAT_ID   = 67984
ELEMENT_SET_NO = 999
REV_AT_EPOCH   = 501
BSTAR          = -.3210532E-1
MEAN_MOTION_DOT = -.2400147E-1
MEAN_MOTION_DDOT = 0

CCSDS_OMM_VERS = 2.0
CREATION_DATE  = 
ORIGINATOR     = 

OBJECT_NAME    = STARLINK-36802
OBJECT_ID      = 2026-038AA
CENTER_NAME    = EARTH
REF_FRAME      = TEME
TIME_SYSTEM    = UTC
MEAN_ELEMENT_THEORY = SGP/SGP4

EPOCH          = 2026-03-21T04:52:03.076032
MEAN_MOTION    = 15.75300289
ECCENTRICITY   = .00006064
INCLINATION    = 97.2884
RA_OF_ASC_NODE = 91.1359
ARG_OF_PERICENTER = 74.7408
MEAN_ANOMALY   = 285.3924

EPHEMERIS_TYPE = 0
CLASSIFICATION_TYPE = U
NORAD_CAT_ID   = 67985
ELEMENT_SET_NO = 999
REV_AT_EPOCH   = 500
BSTAR          = .14061724E-2
MEAN_MOTION_DOT = .216032E-2
MEAN_MOTION_DDOT = 0

CCSDS_OMM_VERS = 2.0
CREATION_DATE  = 
ORIGINATOR     = 

OBJECT_NAME    = STARLINK-36535
OBJECT_ID      = 2026-039A
CENTER_NAME    = EARTH
REF_FRAME      = TEME
TIME_SYSTEM    = UTC
MEAN_ELEMENT_THEORY = SGP/SGP4

EPOCH          = 2026-03-21T04:00:00.999936
MEAN_MOTION    = 15.54000916
ECCENTRICITY   = .00012304
INCLINATION    = 42.9992
RA_OF_ASC_NODE = 345.4431
ARG_OF_PERICENTER = 257.9206
MEAN_ANOMALY   = 94.6423

EPHEMERIS_TYPE = 0
CLASSIFICATION_TYPE = U
NORAD_CAT_ID   = 67986
ELEMENT_SET_NO = 999
REV_AT_EPOCH   = 472
BSTAR          = -.3162144E-1
MEAN_MOTION_DOT = -.1856509E-1
MEAN_MOTION_DDOT = 0

CCSDS_OMM_VERS = 2.0
CREATION_DATE  = 
ORIGINATOR     = 

OBJECT_NAME    = STARLINK-36744
OBJECT_ID      = 2026-039B
CENTER_NAME    = EARTH
REF_FRAME      = TEME
TIME_SYSTEM    = UTC
MEAN_ELEMENT_THEORY = SGP/SGP4

EPOCH          = 2026-03-21T04:00:00.999936
MEAN_MOTION    = 15.55470067
ECCENTRICITY   = .00014918
INCLINATION    = 42.9990
RA_OF_ASC_NODE = 345.3465
ARG_OF_PERICENTER = 266.7950
MEAN_ANOMALY   = 124.4896

EPHEMERIS_TYPE = 0
CLASSIFICATION_TYPE = U
NORAD_CAT_ID   = 67987
ELEMENT_SET_NO = 999
REV_AT_EPOCH   = 472
BSTAR          = -.3004787E-1
MEAN_MOTION_DOT = -.1862413E-1
MEAN_MOTION_DDOT = 0

CCSDS_OMM_VERS = 2.0
CREATION_DATE  = 
ORIGINATOR     = 

OBJECT_NAME    = STARLINK-36734
OBJECT_ID      = 2026-039C
CENTER_NAME    = EARTH
REF_FRAME      = TEME
TIME_SYSTEM    = UTC
MEAN_ELEMENT_THEORY = SGP/SGP4

EPOCH          = 2026-03-21T00:00:00.999648
MEAN_MOTION    = 15.50587499
ECCENTRICITY   = .00016237
INCLINATION    = 42.9996
RA_OF_ASC_NODE = 347.4749
ARG_OF_PERICENTER = 264.8248
MEAN_ANOMALY   = 167.7657

EPHEMERIS_TYPE = 0
CLASSIFICATION_TYPE = U
NORAD_CAT_ID   = 67988
ELEMENT_SET_NO = 999
REV_AT_EPOCH   = 469
BSTAR          = -.12921058E-2
MEAN_MOTION_DOT = -.75441E-3
MEAN_MOTION_DDOT = 0

CCSDS_OMM_VERS = 2.0
CREATION_DATE  = 
ORIGINATOR     = 

OBJECT_NAME    = STARLINK-36957
OBJECT_ID      = 2026-039D
CENTER_NAME    = EARTH
REF_FRAME      = TEME
TIME_SYSTEM    = UTC
MEAN_ELEMENT_THEORY = SGP/SGP4

EPOCH          = 2026-03-21T04:00:00.999936
MEAN_MOTION    = 15.54327248
ECCENTRICITY   = .00013648
INCLINATION    = 42.9994
RA_OF_ASC_NODE = 345.3899
ARG_OF_PERICENTER = 268.5910
MEAN_ANOMALY   = 104.6544

EPHEMERIS_TYPE = 0
CLASSIFICATION_TYPE = U
NORAD_CAT_ID   = 67989
ELEMENT_SET_NO = 999
REV_AT_EPOCH   = 472
BSTAR          = -.31219452E-1
MEAN_MOTION_DOT = -.1855386E-1
MEAN_MOTION_DDOT = 0

CCSDS_OMM_VERS = 2.0
CREATION_DATE  = 
ORIGINATOR     = 

OBJECT_NAME    = STARLINK-36951
OBJECT_ID      = 2026-039E
CENTER_NAME    = EARTH
REF_FRAME      = TEME
TIME_SYSTEM    = UTC
MEAN_ELEMENT_THEORY = SGP/SGP4

EPOCH          = 2026-03-21T04:00:00.999936
MEAN_MOTION    = 15.50544701
ECCENTRICITY   = .00014349
INCLINATION    = 42.9997
RA_OF_ASC_NODE = 345.6309
ARG_OF_PERICENTER = 264.0026
MEAN_ANOMALY   = 11.2663

EPHEMERIS_TYPE = 0
CLASSIFICATION_TYPE = U
NORAD_CAT_ID   = 67990
ELEMENT_SET_NO = 999
REV_AT_EPOCH   = 472
BSTAR          = .16846673E-4
MEAN_MOTION_DOT = .646E-5
MEAN_MOTION_DDOT = 0

CCSDS_OMM_VERS = 2.0
CREATION_DATE  = 
ORIGINATOR     = 

OBJECT_NAME    = STARLINK-36941
OBJECT_ID      = 2026-039F
CENTER_NAME    = EARTH
REF_FRAME      = TEME
TIME_SYSTEM    = UTC
MEAN_ELEMENT_THEORY = SGP/SGP4

EPOCH          = 2026-03-21T00:00:00.999648
MEAN_MOTION    = 15.50608090
ECCENTRICITY   = .00015297
INCLINATION    = 42.9998
RA_OF_ASC_NODE = 347.4655
ARG_OF_PERICENTER = 267.8962
MEAN_ANOMALY   = 168.1105

EPHEMERIS_TYPE = 0
CLASSIFICATION_TYPE = U
NORAD_CAT_ID   = 67991
ELEMENT_SET_NO = 999
REV_AT_EPOCH   = 469
BSTAR          = -.18402622E-2
MEAN_MOTION_DOT = -.106951E-2
MEAN_MOTION_DDOT = 0

CCSDS_OMM_VERS = 2.0
CREATION_DATE  = 
ORIGINATOR     = 

OBJECT_NAME    = STARLINK-36950
OBJECT_ID      = 2026-039G
CENTER_NAME    = EARTH
REF_FRAME      = TEME
TIME_SYSTEM    = UTC
MEAN_ELEMENT_THEORY = SGP/SGP4

EPOCH          = 2026-03-21T04:00:00.999936
MEAN_MOTION    = 15.50494630
ECCENTRICITY   = .00016868
INCLINATION    = 42.9997
RA_OF_ASC_NODE = 346.1124
ARG_OF_PERICENTER = 256.9461
MEAN_ANOMALY   = 183.2568

EPHEMERIS_TYPE = 0
CLASSIFICATION_TYPE = U
NORAD_CAT_ID   = 67992
ELEMENT_SET_NO = 999
REV_AT_EPOCH   = 472
BSTAR          = .23556296E-2
MEAN_MOTION_DOT = .139929E-2
MEAN_MOTION_DDOT = 0

CCSDS_OMM_VERS = 2.0
CREATION_DATE  = 
ORIGINATOR     = 

OBJECT_NAME    = STARLINK-36975
OBJECT_ID      = 2026-039H
CENTER_NAME    = EARTH
REF_FRAME      = TEME
TIME_SYSTEM    = UTC
MEAN_ELEMENT_THEORY = SGP/SGP4

EPOCH          = 2026-03-21T04:00:00.999936
MEAN_MOTION    = 15.50567094
ECCENTRICITY   = .00016281
INCLINATION    = 42.9999
RA_OF_ASC_NODE = 346.0151
ARG_OF_PERICENTER = 261.0020
MEAN_ANOMALY   = 218.5006

EPHEMERIS_TYPE = 0
CLASSIFICATION_TYPE = U
NORAD_CAT_ID   = 67993
ELEMENT_SET_NO = 999
REV_AT_EPOCH   = 472
BSTAR          = -.33181887E-3
MEAN_MOTION_DOT = -.19751E-3
MEAN_MOTION_DDOT = 0

