STARLINK-36879          
1 67982U 26038X   26080.16667824 -.00146710  00000+0 -27416-2 0  9999
2 67982  97.2858  90.9207 0001123  96.4897 331.9893 15.49238863  5044
STARLINK-36867          
1 67983U 26038Y   26080.16667824 -.00110115  00000+0 -20487-2 0  9991
2 67983  97.2853  90.9529 0001419  88.8503  53.6298 15.49225819  5048
STARLINK-36266          
1 67984U 26038Z   26080.16667824 -.02400147  00000+0 -32105-1 0  9990
2 67984  97.2854  91.0735 0001588  75.6499 358.2649 15.61454742  5010
STARLINK-36802          
1 67985U 26038AA  26080.20281338  .00216032  00000+0  14062-2 0  9995
2 67985  97.2884  91.1359 0000606  74.7408 285.3924 15.75300289  5003
STARLINK-36535          
1 67986U 26039A   26080.16667824 -.01856509  00000+0 -31621-1 0  9991
2 67986  42.9992 345.4431 0001230 257.9206  94.6423 15.54000916  4726
STARLINK-36744          
1 67987U 26039B   26080.16667824 -.01862413  00000+0 -30048-1 0  9995
2 67987  42.9990 345.3465 0001491 266.7950 124.4896 15.55470067  4729
STARLINK-36734          
1 67988U 26039C   26080.00001157 -.00075441  00000+0 -12921-2 0  9997
2 67988  42.9996 347.4749 0001623 264.8248 167.7657 15.50587499  4694
STARLINK-36957          
1 67989U 26039D   26080.16667824 -.01855386  00000+0 -31219-1 0  9999
2 67989  42.9994 345.3899 0001364 268.5910 104.6544 15.54327248  4722
STARLINK-36951          
1 67990U 26039E   26080.16667824  .00000646  00000+0  16847-4 0  9992
2 67990  42.9997 345.6309 0001434 264.0026  11.2663 15.50544701  4729
STARLINK-36941          
1 67991U 26039F   26080.00001157 -.00106951  00000+0 -18403-2 0  9993
2 67991  42.9998 347.4655 0001529 267.8962 168.1105 15.50608090  4691
STARLINK-36950          
1 67992U 26039G   26080.16667824  .00139929  00000+0  23556-2 0  9994
2 67992  42.9997 346.1124 0001686 256.9461 183.2568 15.50494630  4723
STARLINK-36975          
1 67993U 26039H   26080.16667824 -.00019751  00000+0 -33182-3 0  9994
2 67993  42.9999 346.0151 0001628 261.0020 218.5006 15.50567094  4723
